STARLINK-31548          
1 59193U 24045R   26068.14428684 -.00002956  00000+0 -98027-4 0  9994
2 59193  43.0008  95.9930 0001226 264.6986  95.3726 15.27554730113074
ION SCV-017             
1 63230U 25052W   26068.71648816  .00006457  00000+0  24539-3 0  9998
2 63230  97.4016 324.7516 0023746  44.9875 315.3282 15.26881798 54851
